[{"OBJECT_NAME":"STARLINK-31921","OBJECT_ID":"2024-098L","EPOCH":"2026-03-09T12:11:39.854688","MEAN_MOTION":15.27557354,"ECCENTRICITY":0.00019779,"INCLINATION":43.0058,"RA_OF_ASC_NODE":238.6667,"ARG_OF_PERICENTER":279.3579,"MEAN_ANOMALY":80.7049,"EPHEMERIS_TYPE":0,"CLASSIFICATION_TYPE":"U","NORAD_CAT_ID":59868,"ELEMENT_SET_NO":999,"REV_AT_EPOCH":10227,"BSTAR":-0.00012765968,"MEAN_MOTION_DOT":-3.771e-5,"MEAN_MOTION_DDOT":0},{"OBJECT_NAME":"AL MUNTHER","OBJECT_ID":"2025-052AG","EPOCH":"2026-03-09T15:29:23.207136","MEAN_MOTION":15.28381521,"ECCENTRICITY":0.0008027,"INCLINATION":97.4001,"RA_OF_ASC_NODE":323.9152,"ARG_OF_PERICENTER":130.7043,"MEAN_ANOMALY":229.4895,"EPHEMERIS_TYPE":0,"CLASSIFICATION_TYPE":"U","NORAD_CAT_ID":63240,"ELEMENT_SET_NO":999,"REV_AT_EPOCH":5479,"BSTAR":0.00065015,"MEAN_MOTION_DOT":0.00017933,"MEAN_MOTION_DDOT":0}]
